{
  "type": "FeatureCollection",
  "features": [
    {
      "type": "Feature",
      "properties": {
        "norad_id": 33913,
        "name": "COSMOS 2251 DEB",
        "group": "cosmos-2251-debris",
        "lat": -67.92556344055737,
        "lon": 63.398411047382645,
        "alt_km": 714.6406700541538,
        "timestamp": "2025-12-04T19:33:59.992426+00:00",
        "meta_object_name": "COSMOS 2251 DEB",
        "meta_object_id": "1993-036DS",
        "meta_epoch": "2025-12-04T04:07:13.463040",
        "meta_mean_motion": 14.48434414,
        "meta_eccentricity": 0.00481507,
        "meta_inclination": 74.0338,
        "meta_ra_of_asc_node": 199.6964,
        "meta_arg_of_pericenter": 303.857,
        "meta_mean_anomaly": 196.5064,
        "meta_ephemeris_type": 0,
        "meta_classification_type": "U",
        "meta_norad_cat_id": 33913,
        "meta_element_set_no": 999,
        "meta_rev_at_epoch": 88333,
        "meta_bstar": 0.0011192662,
        "meta_mean_motion_dot": 4.23e-05,
        "meta_mean_motion_ddot": 0,
        "tle_line1": "1 33913U 93036DS  25338.17168360  .00004230  00000+0  11193-2 0  9998",
        "tle_line2": "2 33913  74.0338 199.6964 0048150 303.8570 196.5064 14.48434414883337"
      },
      "geometry": {
        "type": "Point",
        "coordinates": [
          63.398411047382645,
          -67.92556344055737
        ]
      }
    },
    {
      "type": "Feature",
      "properties": {
        "norad_id": 33914,
        "name": "COSMOS 2251 DEB",
        "group": "cosmos-2251-debris",
        "lat": -60.3158537030143,
        "lon": -121.82500739722373,
        "alt_km": 1074.793934298219,
        "timestamp": "2025-12-04T19:33:59.992435+00:00",
        "meta_object_name": "COSMOS 2251 DEB",
        "meta_object_id": "1993-036DT",
        "meta_epoch": "2025-12-04T06:29:28.270176",
        "meta_mean_motion": 13.71973304,
        "meta_eccentricity": 0.03019137,
        "meta_inclination": 74.0917,
        "meta_ra_of_asc_node": 29.052,
        "meta_arg_of_pericenter": 134.1279,
        "meta_mean_anomaly": 297.3253,
        "meta_ephemeris_type": 0,
        "meta_classification_type": "U",
        "meta_norad_cat_id": 33914,
        "meta_element_set_no": 999,
        "meta_rev_at_epoch": 83965,
        "meta_bstar": 0.001118099,
        "meta_mean_motion_dot": 1.385e-05,
        "meta_mean_motion_ddot": 0,
        "tle_line1": "1 33914U 93036DT  25338.27046609  .00001385  00000+0  11181-2 0  9996",
        "tle_line2": "2 33914  74.0917  29.0520 0301913 134.1279 297.3253 13.71973304839652"
      },
      "geometry": {
        "type": "Point",
        "coordinates": [
          -121.82500739722373,
          -60.3158537030143
        ]
      }
    },
    {
      "type": "Feature",
      "properties": {
        "norad_id": 33915,
        "name": "COSMOS 2251 DEB",
        "group": "cosmos-2251-debris",
        "lat": 3.500866726660396,
        "lon": 49.63288795885002,
        "alt_km": 833.7684552017854,
        "timestamp": "2025-12-04T19:33:59.992444+00:00",
        "meta_object_name": "COSMOS 2251 DEB",
        "meta_object_id": "1993-036DU",
        "meta_epoch": "2025-12-04T06:25:48.631008",
        "meta_mean_motion": 14.35050926,
        "meta_eccentricity": 0.01048926,
        "meta_inclination": 74.0449,
        "meta_ra_of_asc_node": 49.6326,
        "meta_arg_of_pericenter": 144.4085,
        "meta_mean_anomaly": 273.5359,
        "meta_ephemeris_type": 0,
        "meta_classification_type": "U",
        "meta_norad_cat_id": 33915,
        "meta_element_set_no": 999,
        "meta_rev_at_epoch": 87636,
        "meta_bstar": 0.0010853493,
        "meta_mean_motion_dot": 3.268e-05,
        "meta_mean_motion_ddot": 0,
        "tle_line1": "1 33915U 93036DU  25338.26792397  .00003268  00000+0  10853-2 0  9995",
        "tle_line2": "2 33915  74.0449  49.6326 0104892 144.4085 273.5359 14.35050926876360"
      },
      "geometry": {
        "type": "Point",
        "coordinates": [
          49.63288795885002,
          3.500866726660396
        ]
      }
    },
    {
      "type": "Feature",
      "properties": {
        "norad_id": 33916,
        "name": "COSMOS 2251 DEB",
        "group": "cosmos-2251-debris",
        "lat": -60.077420781915684,
        "lon": -96.60413527862872,
        "alt_km": 780.7436497376848,
        "timestamp": "2025-12-04T19:33:59.992453+00:00",
        "meta_object_name": "COSMOS 2251 DEB",
        "meta_object_id": "1993-036DV",
        "meta_epoch": "2025-12-04T06:23:09.005280",
        "meta_mean_motion": 13.68598659,
        "meta_eccentricity": 0.03254941,
        "meta_inclination": 74.0531,
        "meta_ra_of_asc_node": 54.5112,
        "meta_arg_of_pericenter": 228.4533,
        "meta_mean_anomaly": 189.9158,
        "meta_ephemeris_type": 0,
        "meta_classification_type": "U",
        "meta_norad_cat_id": 33916,
        "meta_element_set_no": 999,
        "meta_rev_at_epoch": 83775,
        "meta_bstar": 0.001039465,
        "meta_mean_motion_dot": 1.268e-05,
        "meta_mean_motion_ddot": 0,
        "tle_line1": "1 33916U 93036DV  25338.26607645  .00001268  00000+0  10395-2 0  9996",
        "tle_line2": "2 33916  74.0531  54.5112 0325494 228.4533 189.9158 13.68598659837757"
      },
      "geometry": {
        "type": "Point",
        "coordinates": [
          -96.60413527862872,
          -60.077420781915684
        ]
      }
    },
    {
      "type": "Feature",
      "properties": {
        "norad_id": 33917,
        "name": "COSMOS 2251 DEB",
        "group": "cosmos-2251-debris",
        "lat": -55.179310265118424,
        "lon": 111.20697150763637,
        "alt_km": 892.6445851832586,
        "timestamp": "2025-12-04T19:33:59.992462+00:00",
        "meta_object_name": "COSMOS 2251 DEB",
        "meta_object_id": "1993-036DW",
        "meta_epoch": "2025-12-04T04:04:21.260928",
        "meta_mean_motion": 13.69339365,
        "meta_eccentricity": 0.03311618,
        "meta_inclination": 74.1067,
        "meta_ra_of_asc_node": 136.4453,
        "meta_arg_of_pericenter": 239.3044,
        "meta_mean_anomaly": 117.5059,
        "meta_ephemeris_type": 0,
        "meta_classification_type": "U",
        "meta_norad_cat_id": 33917,
        "meta_element_set_no": 999,
        "meta_rev_at_epoch": 83616,
        "meta_bstar": 0.0012276293,
        "meta_mean_motion_dot": 1.543e-05,
        "meta_mean_motion_ddot": 0,
        "tle_line1": "1 33917U 93036DW  25338.16969052  .00001543  00000+0  12276-2 0  9995",
        "tle_line2": "2 33917  74.1067 136.4453 0331161 239.3044 117.5059 13.69339365836166"
      },
      "geometry": {
        "type": "Point",
        "coordinates": [
          111.20697150763637,
          -55.179310265118424
        ]
      }
    },
    {
      "type": "Feature",
      "properties": {
        "norad_id": 33920,
        "name": "COSMOS 2251 DEB",
        "group": "cosmos-2251-debris",
        "lat": 8.446237022017495,
        "lon": -44.084591508793636,
        "alt_km": 682.5455193848238,
        "timestamp": "2025-12-04T19:33:59.992471+00:00",
        "meta_object_name": "COSMOS 2251 DEB",
        "meta_object_id": "1993-036DZ",
        "meta_epoch": "2025-12-03T23:45:57.286368",
        "meta_mean_motion": 14.5801116,
        "meta_eccentricity": 0.00385766,
        "meta_inclination": 74.0629,
        "meta_ra_of_asc_node": 315.0497,
        "meta_arg_of_pericenter": 322.9779,
        "meta_mean_anomaly": 36.8724,
        "meta_ephemeris_type": 0,
        "meta_classification_type": "U",
        "meta_norad_cat_id": 33920,
        "meta_element_set_no": 999,
        "meta_rev_at_epoch": 87987,
        "meta_bstar": 0.0041324358,
        "meta_mean_motion_dot": 0.00019211,
        "meta_mean_motion_ddot": 0,
        "tle_line1": "1 33920U 93036DZ  25337.99024637  .00019211  00000+0  41324-2 0  9997",
        "tle_line2": "2 33920  74.0629 315.0497 0038576 322.9779  36.8724 14.58011160879870"
      },
      "geometry": {
        "type": "Point",
        "coordinates": [
          -44.084591508793636,
          8.446237022017495
        ]
      }
    },
    {
      "type": "Feature",
      "properties": {
        "norad_id": 33922,
        "name": "COSMOS 2251 DEB",
        "group": "cosmos-2251-debris",
        "lat": 36.24836373391927,
        "lon": 174.728358549025,
        "alt_km": 733.7310826195117,
        "timestamp": "2025-12-04T19:33:59.992480+00:00",
        "meta_object_name": "COSMOS 2251 DEB",
        "meta_object_id": "1993-036EB",
        "meta_epoch": "2025-12-04T06:58:09.168960",
        "meta_mean_motion": 14.49461891,
        "meta_eccentricity": 0.00232604,
        "meta_inclination": 74.0458,
        "meta_ra_of_asc_node": 163.605,
        "meta_arg_of_pericenter": 275.1787,
        "meta_mean_anomaly": 264.8227,
        "meta_ephemeris_type": 0,
        "meta_classification_type": "U",
        "meta_norad_cat_id": 33922,
        "meta_element_set_no": 999,
        "meta_rev_at_epoch": 88455,
        "meta_bstar": 0.00071303346,
        "meta_mean_motion_dot": 2.713e-05,
        "meta_mean_motion_ddot": 0,
        "tle_line1": "1 33922U 93036EB  25338.29038390  .00002713  00000+0  71303-3 0  9994",
        "tle_line2": "2 33922  74.0458 163.6050 0023260 275.1787 264.8227 14.49461891884558"
      },
      "geometry": {
        "type": "Point",
        "coordinates": [
          174.728358549025,
          36.24836373391927
        ]
      }
    }
  ]
}